CCSDS_OMM_VERS = 2.0
CREATION_DATE  = 
ORIGINATOR     = 

OBJECT_NAME    = SL-3 R/B
OBJECT_ID      = 1982-039B
CENTER_NAME    = EARTH
REF_FRAME      = TEME
TIME_SYSTEM    = UTC
MEAN_ELEMENT_THEORY = SGP/SGP4

EPOCH          = 2025-11-19T21:38:15.876960
MEAN_MOTION    = 15.09340376
ECCENTRICITY   = .00316015
INCLINATION    = 81.1764
RA_OF_ASC_NODE = 342.3623
ARG_OF_PERICENTER = 328.0817
MEAN_ANOMALY   = 31.8492

EPHEMERIS_TYPE = 0
CLASSIFICATION_TYPE = U
NORAD_CAT_ID   = 13154
ELEMENT_SET_NO = 999
REV_AT_EPOCH   = 36507
BSTAR          = .15855695E-3
MEAN_MOTION_DOT = .2581E-4
MEAN_MOTION_DDOT = 0

CCSDS_OMM_VERS = 2.0
CREATION_DATE  = 
ORIGINATOR     = 

OBJECT_NAME    = SL-3 R/B
OBJECT_ID      = 1982-079B
CENTER_NAME    = EARTH
REF_FRAME      = TEME
TIME_SYSTEM    = UTC
MEAN_ELEMENT_THEORY = SGP/SGP4

EPOCH          = 2025-11-19T22:54:27.613728
MEAN_MOTION    = 15.23239563
ECCENTRICITY   = .00257977
INCLINATION    = 81.1454
RA_OF_ASC_NODE = 322.5151
ARG_OF_PERICENTER = 173.3515
MEAN_ANOMALY   = 186.8065

EPHEMERIS_TYPE = 0
CLASSIFICATION_TYPE = U
NORAD_CAT_ID   = 13403
ELEMENT_SET_NO = 999
REV_AT_EPOCH   = 36098
BSTAR          = .23595764E-3
MEAN_MOTION_DOT = .5664E-4
MEAN_MOTION_DDOT = 0

CCSDS_OMM_VERS = 2.0
CREATION_DATE  = 
ORIGINATOR     = 

OBJECT_NAME    = SL-14 R/B
OBJECT_ID      = 1982-092B
CENTER_NAME    = EARTH
REF_FRAME      = TEME
TIME_SYSTEM    = UTC
MEAN_ELEMENT_THEORY = SGP/SGP4

EPOCH          = 2025-11-19T18:52:39.120960
MEAN_MOTION    = 14.86520196
ECCENTRICITY   = .00191639
INCLINATION    = 82.5686
RA_OF_ASC_NODE = 244.1755
ARG_OF_PERICENTER = 309.1238
MEAN_ANOMALY   = 70.0353

EPHEMERIS_TYPE = 0
CLASSIFICATION_TYPE = U
NORAD_CAT_ID   = 13553
ELEMENT_SET_NO = 999
REV_AT_EPOCH   = 31260
BSTAR          = .77787672E-4
MEAN_MOTION_DOT = .714E-5
MEAN_MOTION_DDOT = 0

CCSDS_OMM_VERS = 2.0
CREATION_DATE  = 
ORIGINATOR     = 

OBJECT_NAME    = SL-3 R/B
OBJECT_ID      = 1983-010B
CENTER_NAME    = EARTH
REF_FRAME      = TEME
TIME_SYSTEM    = UTC
MEAN_ELEMENT_THEORY = SGP/SGP4

EPOCH          = 2025-11-19T22:41:26.186208
MEAN_MOTION    = 15.42646769
ECCENTRICITY   = .00181834
INCLINATION    = 81.1021
RA_OF_ASC_NODE = 136.4243
ARG_OF_PERICENTER = 69.1370
MEAN_ANOMALY   = 291.1817

EPHEMERIS_TYPE = 0
CLASSIFICATION_TYPE = U
NORAD_CAT_ID   = 13819
ELEMENT_SET_NO = 999
REV_AT_EPOCH   = 34100
BSTAR          = .29249225E-3
MEAN_MOTION_DOT = .12848E-3
MEAN_MOTION_DDOT = 0

CCSDS_OMM_VERS = 2.0
CREATION_DATE  = 
ORIGINATOR     = 

OBJECT_NAME    = SL-3 R/B
OBJECT_ID      = 1983-075B
CENTER_NAME    = EARTH
REF_FRAME      = TEME
TIME_SYSTEM    = UTC
MEAN_ELEMENT_THEORY = SGP/SGP4

EPOCH          = 2025-11-19T23:35:47.387040
MEAN_MOTION    = 15.35509685
ECCENTRICITY   = .00209079
INCLINATION    = 97.6095
RA_OF_ASC_NODE = 319.7147
ARG_OF_PERICENTER = 261.2290
MEAN_ANOMALY   = 98.6585

EPHEMERIS_TYPE = 0
CLASSIFICATION_TYPE = U
NORAD_CAT_ID   = 14208
ELEMENT_SET_NO = 999
REV_AT_EPOCH   = 31330
BSTAR          = .29217289E-3
MEAN_MOTION_DOT = .10069E-3
MEAN_MOTION_DDOT = 0

CCSDS_OMM_VERS = 2.0
CREATION_DATE  = 
ORIGINATOR     = 

OBJECT_NAME    = COSMOS 1536
OBJECT_ID      = 1984-013A
CENTER_NAME    = EARTH
REF_FRAME      = TEME
TIME_SYSTEM    = UTC
MEAN_ELEMENT_THEORY = SGP/SGP4

EPOCH          = 2025-11-19T16:03:35.433504
MEAN_MOTION    = 15.22166316
ECCENTRICITY   = .00137952
INCLINATION    = 82.5475
RA_OF_ASC_NODE = 217.0340
ARG_OF_PERICENTER = 316.3420
MEAN_ANOMALY   = 43.6724

EPHEMERIS_TYPE = 0
CLASSIFICATION_TYPE = U
NORAD_CAT_ID   = 14699
ELEMENT_SET_NO = 999
REV_AT_EPOCH   = 25587
BSTAR          = .29862809E-3
MEAN_MOTION_DOT = .6899E-4
MEAN_MOTION_DDOT = 0

CCSDS_OMM_VERS = 2.0
CREATION_DATE  = 
ORIGINATOR     = 

OBJECT_NAME    = SL-14 R/B
OBJECT_ID      = 1984-027B
CENTER_NAME    = EARTH
REF_FRAME      = TEME
TIME_SYSTEM    = UTC
MEAN_ELEMENT_THEORY = SGP/SGP4

EPOCH          = 2025-11-19T19:02:48.903648
MEAN_MOTION    = 14.85839928
ECCENTRICITY   = .00174286
INCLINATION    = 82.5417
RA_OF_ASC_NODE = 348.0766
ARG_OF_PERICENTER = 342.4486
MEAN_ANOMALY   = 17.6126

EPHEMERIS_TYPE = 0
CLASSIFICATION_TYPE = U
NORAD_CAT_ID   = 14820
ELEMENT_SET_NO = 999
REV_AT_EPOCH   = 23131
BSTAR          = .6060384E-4
MEAN_MOTION_DOT = .553E-5
MEAN_MOTION_DDOT = 0

CCSDS_OMM_VERS = 2.0
CREATION_DATE  = 
ORIGINATOR     = 

OBJECT_NAME    = SL-8 R/B
OBJECT_ID      = 1985-006B
CENTER_NAME    = EARTH
REF_FRAME      = TEME
TIME_SYSTEM    = UTC
MEAN_ELEMENT_THEORY = SGP/SGP4

EPOCH          = 2025-11-19T19:22:11.824320
MEAN_MOTION    = 14.37700485
ECCENTRICITY   = .00177497
INCLINATION    = 74.0445
RA_OF_ASC_NODE = 103.3251
ARG_OF_PERICENTER = 42.4791
MEAN_ANOMALY   = 112.4979

EPHEMERIS_TYPE = 0
CLASSIFICATION_TYPE = U
NORAD_CAT_ID   = 15483
ELEMENT_SET_NO = 999
REV_AT_EPOCH   = 13823
BSTAR          = .10504528E-3
MEAN_MOTION_DOT = .29E-5
MEAN_MOTION_DDOT = 0

CCSDS_OMM_VERS = 2.0
CREATION_DATE  = 
ORIGINATOR     = 

OBJECT_NAME    = SL-12 R/B(2)
OBJECT_ID      = 1985-042D
CENTER_NAME    = EARTH
REF_FRAME      = TEME
TIME_SYSTEM    = UTC
MEAN_ELEMENT_THEORY = SGP/SGP4

EPOCH          = 2025-11-19T22:41:26.486016
MEAN_MOTION    = 14.21941594
ECCENTRICITY   = .0037471
INCLINATION    = 71.1077
RA_OF_ASC_NODE = 319.5765
ARG_OF_PERICENTER = 294.8282
MEAN_ANOMALY   = 85.9610

EPHEMERIS_TYPE = 0
CLASSIFICATION_TYPE = U
NORAD_CAT_ID   = 15772
ELEMENT_SET_NO = 999
REV_AT_EPOCH   = 9879
BSTAR          = .87279326E-4
MEAN_MOTION_DOT = .146E-5
MEAN_MOTION_DDOT = 0

CCSDS_OMM_VERS = 2.0
CREATION_DATE  = 
ORIGINATOR     = 

OBJECT_NAME    = SL-14 R/B
OBJECT_ID      = 1985-069B
CENTER_NAME    = EARTH
REF_FRAME      = TEME
TIME_SYSTEM    = UTC
MEAN_ELEMENT_THEORY = SGP/SGP4

EPOCH          = 2025-11-19T21:05:48.980832
MEAN_MOTION    = 14.86284369
ECCENTRICITY   = .00184751
INCLINATION    = 82.5246
RA_OF_ASC_NODE = 128.1952
ARG_OF_PERICENTER = 191.8634
MEAN_ANOMALY   = 168.2150

EPHEMERIS_TYPE = 0
CLASSIFICATION_TYPE = U
NORAD_CAT_ID   = 15945
ELEMENT_SET_NO = 999
REV_AT_EPOCH   = 15652
BSTAR          = .7171787E-4
MEAN_MOTION_DOT = .657E-5
MEAN_MOTION_DDOT = 0

CCSDS_OMM_VERS = 2.0
CREATION_DATE  = 
ORIGINATOR     = 

OBJECT_NAME    = SL-16 R/B
OBJECT_ID      = 1985-097B
CENTER_NAME    = EARTH
REF_FRAME      = TEME
TIME_SYSTEM    = UTC
MEAN_ELEMENT_THEORY = SGP/SGP4

EPOCH          = 2025-11-19T22:08:42.361728
MEAN_MOTION    = 14.16579327
ECCENTRICITY   = .00055288
INCLINATION    = 71.0043
RA_OF_ASC_NODE = 11.6403
ARG_OF_PERICENTER = 52.7077
MEAN_ANOMALY   = 120.5584

EPHEMERIS_TYPE = 0
CLASSIFICATION_TYPE = U
NORAD_CAT_ID   = 16182
ELEMENT_SET_NO = 999
REV_AT_EPOCH   = 7168
BSTAR          = .1790218E-3
MEAN_MOTION_DOT = .309E-5
MEAN_MOTION_DDOT = 0

CCSDS_OMM_VERS = 2.0
CREATION_DATE  = 
ORIGINATOR     = 

OBJECT_NAME    = SL-14 R/B
OBJECT_ID      = 1986-006B
CENTER_NAME    = EARTH
REF_FRAME      = TEME
TIME_SYSTEM    = UTC
MEAN_ELEMENT_THEORY = SGP/SGP4

EPOCH          = 2025-11-19T19:34:12.468576
MEAN_MOTION    = 14.86626612
ECCENTRICITY   = .00752117
INCLINATION    = 82.5282
RA_OF_ASC_NODE = 3.1216
ARG_OF_PERICENTER = 277.0717
MEAN_ANOMALY   = 82.1951

EPHEMERIS_TYPE = 0
CLASSIFICATION_TYPE = U
NORAD_CAT_ID   = 16496
ELEMENT_SET_NO = 999
REV_AT_EPOCH   = 13288
BSTAR          = .82764846E-4
MEAN_MOTION_DOT = .798E-5
MEAN_MOTION_DDOT = 0

