SL-3 R/B                
1 13154U 82039B   25323.90157265  .00002581  00000+0  15856-3 0  9999
2 13154  81.1764 342.3623 0031601 328.0817  31.8492 15.09340376365072
SL-3 R/B                
1 13403U 82079B   25323.95448627  .00005664  00000+0  23596-3 0  9995
2 13403  81.1454 322.5151 0025797 173.3515 186.8065 15.23239563360989
SL-14 R/B               
1 13553U 82092B   25323.78656390  .00000714  00000+0  77788-4 0  9999
2 13553  82.5686 244.1755 0019163 309.1238  70.0353 14.86520196312600
SL-3 R/B                
1 13819U 83010B   25323.94544197  .00012848  00000+0  29249-3 0  9993
2 13819  81.1021 136.4243 0018183  69.1370 291.1817 15.42646769341004
SL-3 R/B                
1 14208U 83075B   25323.98318735  .00010069  00000+0  29217-3 0  9996
2 14208  97.6095 319.7147 0020907 261.2290  98.6585 15.35509685313303
COSMOS 1536             
1 14699U 84013A   25323.66916011  .00006899  00000+0  29863-3 0  9992
2 14699  82.5475 217.0340 0013795 316.3420  43.6724 15.22166316255879
SL-14 R/B               
1 14820U 84027B   25323.79362157  .00000553  00000+0  60604-4 0  9993
2 14820  82.5417 348.0766 0017428 342.4486  17.6126 14.85839928231311
SL-8 R/B                
1 15483U 85006B   25323.80708130  .00000290  00000+0  10505-3 0  9996
2 15483  74.0445 103.3251 0017749  42.4791 112.4979 14.37700485138236
SL-12 R/B(2)            
1 15772U 85042D   25323.94544544  .00000146  00000+0  87279-4 0  9992
2 15772  71.1077 319.5765 0037471 294.8282  85.9610 14.21941594 98792
SL-14 R/B               
1 15945U 85069B   25323.87903913  .00000657  00000+0  71718-4 0  9992
2 15945  82.5246 128.1952 0018475 191.8634 168.2150 14.86284369156521
SL-16 R/B               
1 16182U 85097B   25323.92271252  .00000309  00000+0  17902-3 0  9995
2 16182  71.0043  11.6403 0005528  52.7077 120.5584 14.16579327 71680
SL-14 R/B               
1 16496U 86006B   25323.81542209  .00000798  00000+0  82765-4 0  9997
2 16496  82.5282   3.1216 0075211 277.0717  82.1951 14.86626612132885
